{"type": "FeatureCollection", "features": [ {"type": "Feature", "properties": {"norad_id": 54234, "name": "NOAA 21 (JPSS-2)", "group": "weather", "lat": 37.81260054504835, "lon": -92.77974972101313, "alt_km": 822.3963604051023, "timestamp": "2025-12-03T15:48:02.748504+00:00", "meta": {"OBJECT_NAME": "NOAA 21 (JPSS-2)", "OBJECT_ID": "2022-150A", "EPOCH": "2025-12-03T07:09:45.037152", "MEAN_MOTION": 14.19519873, "ECCENTRICITY": 0.00025426, "INCLINATION": 98.7448, "RA_OF_ASC_NODE": 273.7251, "ARG_OF_PERICENTER": 55.6114, "MEAN_ANOMALY": 304.5302, "EPHEMERIS_TYPE": 0, "CLASSIFICATION_TYPE": "U", "NORAD_CAT_ID": 54234, "ELEMENT_SET_NO": 999, "REV_AT_EPOCH": 15875, "BSTAR": 9.4686036e-05, "MEAN_MOTION_DOT": 1.56e-06, "MEAN_MOTION_DDOT": 0}, "tle": {"line1": "1 54234U 22150A   25337.29843793  .00000156  00000+0  94686-4 0  9991", "line2": "2 54234  98.7448 273.7251 0002542  55.6114 304.5302 14.19519873158753"}}, "geometry": {"type": "Point", "coordinates": [-92.77974972101313, 37.81260054504835]}}, {"type": "Feature", "properties": {"norad_id": 54743, "name": "METEOSAT-12 (MTG-I1)", "group": "weather", "lat": -0.711671859945472, "lon": -50.538945256269024, "alt_km": 35782.86055894956, "timestamp": "2025-12-03T15:48:02.748515+00:00", "meta": {"OBJECT_NAME": "METEOSAT-12 (MTG-I1)", "OBJECT_ID": "2022-170C", "EPOCH": "2025-12-03T06:54:18.722880", "MEAN_MOTION": 1.00273639, "ECCENTRICITY": 0.00014958, "INCLINATION": 0.7174, "RA_OF_ASC_NODE": 29.9886, "ARG_OF_PERICENTER": 215.4423, "MEAN_ANOMALY": 290.2363, "EPHEMERIS_TYPE": 0, "CLASSIFICATION_TYPE": "U", "NORAD_CAT_ID": 54743, "ELEMENT_SET_NO": 999, "REV_AT_EPOCH": 1101, "BSTAR": 0, "MEAN_MOTION_DOT": 1.2e-07, "MEAN_MOTION_DDOT": 0}, "tle": {"line1": "1 54743U 22170C   25337.28771670  .00000012  00000+0  00000+0 0  9994", "line2": "2 54743   0.7174  29.9886 0001495 215.4423 290.2363  1.00273639 11015"}}, "geometry": {"type": "Point", "coordinates": [-50.538945256269024, -0.711671859945472]}}, {"type": "Feature", "properties": {"norad_id": 55973, "name": "TIANMU-1 03", "group": "weather", "lat": -31.495309429496572, "lon": 144.69505005864752, "alt_km": 452.259080064744, "timestamp": "2025-12-03T15:48:02.748525+00:00", "meta": {"OBJECT_NAME": "TIANMU-1 03", "OBJECT_ID": "2023-039A", "EPOCH": "2025-12-03T08:08:37.710240", "MEAN_MOTION": 15.40491993, "ECCENTRICITY": 0.00045606, "INCLINATION": 97.5101, "RA_OF_ASC_NODE": 139.7312, "ARG_OF_PERICENTER": 88.1775, "MEAN_ANOMALY": 271.9993, "EPHEMERIS_TYPE": 0, "CLASSIFICATION_TYPE": "U", "NORAD_CAT_ID": 55973, "ELEMENT_SET_NO": 999, "REV_AT_EPOCH": 15061, "BSTAR": 0.00048124963, "MEAN_MOTION_DOT": 0.00019459, "MEAN_MOTION_DDOT": 0}, "tle": {"line1": "1 55973U 23039A   25337.33932535  .00019459  00000+0  48125-3 0  9999", "line2": "2 55973  97.5101 139.7312 0004560  88.1775 271.9993 15.40491993150619"}}, "geometry": {"type": "Point", "coordinates": [144.69505005864752, -31.495309429496572]}}, {"type": "Feature", "properties": {"norad_id": 55974, "name": "TIANMU-1 04", "group": "weather", "lat": 69.98697153419612, "lon": 118.0385960156437, "alt_km": 433.39102832435765, "timestamp": "2025-12-03T15:48:02.748535+00:00", "meta": {"OBJECT_NAME": "TIANMU-1 04", "OBJECT_ID": "2023-039B", "EPOCH": "2025-12-03T09:15:28.056096", "MEAN_MOTION": 15.40824154, "ECCENTRICITY": 0.00052285, "INCLINATION": 97.5032, "RA_OF_ASC_NODE": 138.9738, "ARG_OF_PERICENTER": 84.1569, "MEAN_ANOMALY": 276.0273, "EPHEMERIS_TYPE": 0, "CLASSIFICATION_TYPE": "U", "NORAD_CAT_ID": 55974, "ELEMENT_SET_NO": 999, "REV_AT_EPOCH": 15062, "BSTAR": 0.00049174191, "MEAN_MOTION_DOT": 0.00020108, "MEAN_MOTION_DDOT": 0}, "tle": {"line1": "1 55974U 23039B   25337.38574139  .00020108  00000+0  49174-3 0  9995", "line2": "2 55974  97.5032 138.9738 0005228  84.1569 276.0273 15.40824154150622"}}, "geometry": {"type": "Point", "coordinates": [118.0385960156437, 69.98697153419612]}}, {"type": "Feature", "properties": {"norad_id": 55975, "name": "TIANMU-1 05", "group": "weather", "lat": 63.343261918354656, "lon": -25.022824564602235, "alt_km": 435.70965545300896, "timestamp": "2025-12-03T15:48:02.748544+00:00", "meta": {"OBJECT_NAME": "TIANMU-1 05", "OBJECT_ID": "2023-039C", "EPOCH": "2025-12-03T09:03:53.919360", "MEAN_MOTION": 15.4045236, "ECCENTRICITY": 0.00043222, "INCLINATION": 97.5079, "RA_OF_ASC_NODE": 139.4575, "ARG_OF_PERICENTER": 104.7047, "MEAN_ANOMALY": 255.4678, "EPHEMERIS_TYPE": 0, "CLASSIFICATION_TYPE": "U", "NORAD_CAT_ID": 55975, "ELEMENT_SET_NO": 999, "REV_AT_EPOCH": 15060, "BSTAR": 0.00048171526, "MEAN_MOTION_DOT": 0.00019451, "MEAN_MOTION_DDOT": 0}, "tle": {"line1": "1 55975U 23039C   25337.37770740  .00019451  00000+0  48172-3 0  9997", "line2": "2 55975  97.5079 139.4575 0004322 104.7047 255.4678 15.40452360150607"}}, "geometry": {"type": "Point", "coordinates": [-25.022824564602235, 63.343261918354656]}}, {"type": "Feature", "properties": {"norad_id": 55976, "name": "TIANMU-1 06", "group": "weather", "lat": 56.806012325929444, "lon": 128.57153574909938, "alt_km": 435.7116391525551, "timestamp": "2025-12-03T15:48:02.748553+00:00", "meta": {"OBJECT_NAME": "TIANMU-1 06", "OBJECT_ID": "2023-039D", "EPOCH": "2025-12-03T09:19:03.440064", "MEAN_MOTION": 15.40877392, "ECCENTRICITY": 0.00046605, "INCLINATION": 97.509, "RA_OF_ASC_NODE": 139.9257, "ARG_OF_PERICENTER": 100.3506, "MEAN_ANOMALY": 259.8265, "EPHEMERIS_TYPE": 0, "CLASSIFICATION_TYPE": "U", "NORAD_CAT_ID": 55976, "ELEMENT_SET_NO": 999, "REV_AT_EPOCH": 15062, "BSTAR": 0.00049378386, "MEAN_MOTION_DOT": 0.00020226, "MEAN_MOTION_DDOT": 0}, "tle": {"line1": "1 55976U 23039D   25337.38823426  .00020226  00000+0  49378-3 0  9990", "line2": "2 55976  97.5090 139.9257 0004660 100.3506 259.8265 15.40877392150628"}}, "geometry": {"type": "Point", "coordinates": [128.57153574909938, 56.806012325929444]}}, {"type": "Feature", "properties": {"norad_id": 56232, "name": "FENGYUN 3G", "group": "weather", "lat": 21.44191485736138, "lon": -66.45216337396248, "alt_km": 404.4346528192855, "timestamp": "2025-12-03T15:48:02.748562+00:00", "meta": {"OBJECT_NAME": "FENGYUN 3G", "OBJECT_ID": "2023-055A", "EPOCH": "2025-12-03T07:57:22.826880", "MEAN_MOTION": 15.52770913, "ECCENTRICITY": 0.00092395, "INCLINATION": 49.9946, "RA_OF_ASC_NODE": 275.9737, "ARG_OF_PERICENTER": 103.1563, "MEAN_ANOMALY": 257.0436, "EPHEMERIS_TYPE": 0, "CLASSIFICATION_TYPE": "U", "NORAD_CAT_ID": 56232, "ELEMENT_SET_NO": 999, "REV_AT_EPOCH": 14956, "BSTAR": 0.00061631893, "MEAN_MOTION_DOT": 0.00038675, "MEAN_MOTION_DDOT": 0}, "tle": {"line1": "1 56232U 23055A   25337.33151420  .00038675  00000+0  61632-3 0  9991", "line2": "2 56232  49.9946 275.9737 0009239 103.1563 257.0436 15.52770913149565"}}, "geometry": {"type": "Point", "coordinates": [-66.45216337396248, 21.44191485736138]}}, {"type": "Feature", "properties": {"norad_id": 57166, "name": "METEOR-M2 3", "group": "weather", "lat": 21.527723575115452, "lon": -145.20588760131014, "alt_km": 813.3584943700307, "timestamp": "2025-12-03T15:48:02.748571+00:00", "meta": {"OBJECT_NAME": "METEOR-M2 3", "OBJECT_ID": "2023-091A", "EPOCH": "2025-12-03T08:18:56.704896", "MEAN_MOTION": 14.24024229, "ECCENTRICITY": 0.00044068, "INCLINATION": 98.6393, "RA_OF_ASC_NODE": 31.0494, "ARG_OF_PERICENTER": 33.9764, "MEAN_ANOMALY": 326.1696, "EPHEMERIS_TYPE": 0, "CLASSIFICATION_TYPE": "U", "NORAD_CAT_ID": 57166, "ELEMENT_SET_NO": 999, "REV_AT_EPOCH": 12664, "BSTAR": 4.1251597e-05, "MEAN_MOTION_DOT": 5.1e-07, "MEAN_MOTION_DDOT": 0}, "tle": {"line1": "1 57166U 23091A   25337.34648964  .00000051  00000+0  41252-4 0  9997", "line2": "2 57166  98.6393  31.0494 0004406  33.9764 326.1696 14.24024229126644"}}, "geometry": {"type": "Point", "coordinates": [-145.20588760131014, 21.527723575115452]}}, {"type": "Feature", "properties": {"norad_id": 57399, "name": "TIANMU-1 07", "group": "weather", "lat": -12.736536801654518, "lon": -153.9480225507417, "alt_km": 486.71344909065556, "timestamp": "2025-12-03T15:48:02.748581+00:00", "meta": {"OBJECT_NAME": "TIANMU-1 07", "OBJECT_ID": "2023-101A", "EPOCH": "2025-12-03T07:06:04.255776", "MEAN_MOTION": 15.27851331, "ECCENTRICITY": 0.000559, "INCLINATION": 97.2896, "RA_OF_ASC_NODE": 27.3555, "ARG_OF_PERICENTER": 105.4526, "MEAN_ANOMALY": 254.7332, "EPHEMERIS_TYPE": 0, "CLASSIFICATION_TYPE": "U", "NORAD_CAT_ID": 57399, "ELEMENT_SET_NO": 999, "REV_AT_EPOCH": 13171, "BSTAR": 0.00037440233, "MEAN_MOTION_DOT": 0.00010117, "MEAN_MOTION_DDOT": 0}, "tle": {"line1": "1 57399U 23101A   25337.29588259  .00010117  00000+0  37440-3 0  9998", "line2": "2 57399  97.2896  27.3555 0005590 105.4526 254.7332 15.27851331131710"}}, "geometry": {"type": "Point", "coordinates": [-153.9480225507417, -12.736536801654518]}}, {"type": "Feature", "properties": {"norad_id": 57400, "name": "TIANMU-1 08", "group": "weather", "lat": 14.584295811865024, "lon": 25.601264263902188, "alt_km": 483.66259595059, "timestamp": "2025-12-03T15:48:02.748590+00:00", "meta": {"OBJECT_NAME": "TIANMU-1 08", "OBJECT_ID": "2023-101B", "EPOCH": "2025-12-03T07:52:38.169984", "MEAN_MOTION": 15.27837138, "ECCENTRICITY": 0.00074673, "INCLINATION": 97.2884, "RA_OF_ASC_NODE": 27.1868, "ARG_OF_PERICENTER": 110.3411, "MEAN_ANOMALY": 249.8632, "EPHEMERIS_TYPE": 0, "CLASSIFICATION_TYPE": "U", "NORAD_CAT_ID": 57400, "ELEMENT_SET_NO": 999, "REV_AT_EPOCH": 13171, "BSTAR": 0.00035459751, "MEAN_MOTION_DOT": 9.576e-05, "MEAN_MOTION_DDOT": 0}, "tle": {"line1": "1 57400U 23101B   25337.32821956  .00009576  00000+0  35460-3 0  9996", "line2": "2 57400  97.2884  27.1868 0007467 110.3411 249.8632 15.27837138131715"}}, "geometry": {"type": "Point", "coordinates": [25.601264263902188, 14.584295811865024]}}]}